#aV2015  7 24  0  0  0.00000000     288 DD+AD WGS84 FIT  NGA
## 1854 432000.00000000   300.00000000 57227 0.0000000000000
+   31     1  2  3  4  5  6  7  9 10 11 12 13 14 15 16 17 18
+         19 20 21 22 23 24 25 26 27 28 29 30 31 32  0  0  0
+          0  0  0  0  0  0  0  0  0  0  0  0  0  0  0  0  0
+          0  0  0  0  0  0  0  0  0  0  0  0  0  0  0  0  0
+          0  0  0  0  0  0  0  0  0  0  0  0  0  0  0  0  0
++         2  2  2  2  2  2  2  2  2  2  2  2  2  2  2  2  2
++         2  2  2  2  2  2  2  2  2  2  2  2  2  2  0  0  0
++         0  0  0  0  0  0  0  0  0  0  0  0  0  0  0  0  0
++         0  0  0  0  0  0  0  0  0  0  0  0  0  0  0  0  0
++         0  0  0  0  0  0  0  0  0  0  0  0  0  0  0  0  0
%c cc cc ccc ccc cccc cccc cccc cccc ccccc ccccc ccccc ccccc
%c cc cc ccc ccc cccc cccc cccc cccc ccccc ccccc ccccc ccccc
%f  0.0000000  0.000000000  0.00000000000  0.000000000000000
%f  0.0000000  0.000000000  0.00000000000  0.000000000000000
%i    0    0    0    0      0      0      0      0         0
%i    0    0    0    0      0      0      0      0         0
/*      NGA, ST. LOUIS,MO.                                  
/*   EPHEMERIS COMPUTED FROM  1 DAYS OF DATA                
/*   EPOCHA SMOOTHER                                       
/* CCCCCCCCCCCCCCCCCCCCCCCCCCCCCCCCCCCCCCCCCCCCCCCCCCCCCCCCC
*  2015  7 24 17 10  0.00000000
P  1  13638.914648 -20863.008101   8821.316680     -2.381652                    
V  1  -1132.358806  11601.818283  29186.041512      0.006015                    
P  2 -15785.308475   -409.706864 -20931.064378    580.176664                    
V  2   7167.383553 -26653.139204  -5235.457418      0.022175                    
P  3  18542.667810 -13415.554670 -13487.725871     10.471682                    
V  3  17248.136052  -1209.355741  24857.440551      0.037741                    
P  4  16251.885945 -13365.669326  15712.351363     -4.009478                    
V  4  -3778.785078  20547.187346  21205.598647     -0.031765                    
P  5 -26123.349355   1767.839109  -5079.078140   -214.316678                    
V  5   5603.470863  -4274.020762 -30425.556673      0.042976                    
P  6 -10082.957573 -14082.471730 -20140.790855     23.310388                    
V  6   9080.618371 -23917.255932  12170.906146      0.080819                    
P  7   5241.762250 -25280.179820   5401.230870    476.251725                    
V  7   4907.363389  -5436.094097 -31213.243054      0.020964                    
P  9  -2262.394850 -20394.857905 -16859.484005     -8.771651                    
V  9  15643.905801  14744.622527 -19958.876848     -0.018591                    
P 10 -15374.515874 -11181.883308 -19105.556682   -183.814044                    
V 10  22676.916938  -5778.054615 -14760.030855     -0.014881                    
P 11  11503.585240 -18258.305675  14873.935330   -593.442754                    
V 11   4081.355457  20012.312533  20778.944461     -0.024366                    
P 12 -20986.796622  11075.868853 -11809.850321    312.770689                    
V 12 -14956.220298    550.615702  27544.228193      0.033363                    
P 13 -18911.234041  -6465.947676  17297.922294   -134.997831                    
V 13 -11482.466806 -19117.592358 -19660.617425     -0.033351                    
P 14  14514.084577  22219.052591   2625.111256     46.654542                    
V 14  -3800.995296   -904.661797  31539.587435     -0.026740                    
P 15 -15521.837580   6026.990913  20655.790364   -262.261916                    
V 15 -17950.774028 -19490.035224  -7445.130599     -0.020826                    
P 16  26214.556471     70.883189  -5446.752402   -105.050449                    
V 16  -6459.136281   2391.012658 -31174.084320      0.041281                    
P 17 -15871.333100 -21401.437644   1587.191544   -181.426948                    
V 17   2770.998432   -124.757717  31805.262866     -0.015005                    
P 18    741.479405  16365.863601  21390.440559    419.855759                    
V 18 -25644.899428   5249.984505  -3497.806852      0.030874                    
P 19  16092.670890  -2216.673761  20898.415866   -516.683715                    
V 19  15385.790261  22052.338087  -8963.645667     -0.009213                    
P 20 -20732.389372  13434.266247   9720.795823    341.143759                    
V 20 -13052.321294     97.339388 -27467.150333      0.032135                    
P 21  -1536.100576  25222.962301   8288.642651   -466.406024                    
V 21  -6269.728052   8217.711576 -28955.349655     -0.031131                    
P 22  14359.887406  11752.679216  19300.649568    374.398390                    
V 22 -23163.800288   6813.648106  13073.567575      0.038736                    
P 23   9406.891405 -12462.576182 -21285.231127   -122.979315                    
V 23  18592.689033  20275.132726  -4063.586793     -0.023166                    
P 24 -14469.150612  19062.008732  11323.720092     -1.857439                    
V 24   1771.208858 -14650.205607  26985.039327     -0.006019                    
P 25  -9039.788428  15381.411087 -19723.296601    -16.898007                    
V 25 -24545.571580   3877.618142  14506.011252     -0.045711                    
P 26  21404.983006   5978.095159 -14555.327428    -13.803093                    
V 26 -17660.802258   5795.278843 -23601.294991     -0.063348                    
P 27  20620.076012   7763.655588  14894.123063      6.704217                    
V 27  11186.487353  15333.311595 -23323.642381      0.028219                    
P 28  -9343.123908 -13193.093177  21712.144838    455.811056                    
V 28  25762.574206  -3734.454164   8998.322700      0.026144                    
P 29   -476.718528  19337.160530 -18206.579101    624.216393                    
V 29 -15367.575493 -17295.503123 -17907.397647      0.022418                    
P 30  -2312.452859 -21794.760168  14941.438852     -7.375595                    
V 30   9396.965886 -16694.954834 -22961.907417      0.075290                    
P 31  10719.396105  11952.879747 -20960.875077    308.746514                    
V 31 -10202.282759  24959.901277   9285.418172     -0.012162                    
P 32  25652.559528  -4989.287041  -2652.552918    -91.297577                    
V 32   3810.361538   3285.175022  31547.180705      0.101949                    
EOF
